CCSDS_OMM_VERS = 2.0
CREATION_DATE  = 
ORIGINATOR     = 

OBJECT_NAME    = STARLINK-36073
OBJECT_ID      = 2025-280Z
CENTER_NAME    = EARTH
REF_FRAME      = TEME
TIME_SYSTEM    = UTC
MEAN_ELEMENT_THEORY = SGP/SGP4

EPOCH          = 2025-12-10T18:00:02.000160
MEAN_MOTION    = 15.87818843
ECCENTRICITY   = .0003729
INCLINATION    = 69.9926
RA_OF_ASC_NODE = 204.5030
ARG_OF_PERICENTER = 269.5704
MEAN_ANOMALY   = 314.9537

EPHEMERIS_TYPE = 0
CLASSIFICATION_TYPE = U
NORAD_CAT_ID   = 66844
ELEMENT_SET_NO = 999
REV_AT_EPOCH   = 258
BSTAR          = -.71928E-2
MEAN_MOTION_DOT = -.1691191E-1
MEAN_MOTION_DDOT = 0

CCSDS_OMM_VERS = 2.0
CREATION_DATE  = 
ORIGINATOR     = 

OBJECT_NAME    = STARLINK-36068
OBJECT_ID      = 2025-280AA
CENTER_NAME    = EARTH
REF_FRAME      = TEME
TIME_SYSTEM    = UTC
MEAN_ELEMENT_THEORY = SGP/SGP4

EPOCH          = 2025-12-10T18:00:02.000160
MEAN_MOTION    = 15.87995314
ECCENTRICITY   = .00038
INCLINATION    = 69.9924
RA_OF_ASC_NODE = 204.4949
ARG_OF_PERICENTER = 268.3551
MEAN_ANOMALY   = 322.8945

EPHEMERIS_TYPE = 0
CLASSIFICATION_TYPE = U
NORAD_CAT_ID   = 66845
ELEMENT_SET_NO = 999
REV_AT_EPOCH   = 258
BSTAR          = -.72002E-2
MEAN_MOTION_DOT = -.1705839E-1
MEAN_MOTION_DDOT = 0

CCSDS_OMM_VERS = 2.0
CREATION_DATE  = 
ORIGINATOR     = 

OBJECT_NAME    = STARLINK-36055
OBJECT_ID      = 2025-280AB
CENTER_NAME    = EARTH
REF_FRAME      = TEME
TIME_SYSTEM    = UTC
MEAN_ELEMENT_THEORY = SGP/SGP4

EPOCH          = 2025-12-10T18:00:02.000160
MEAN_MOTION    = 15.87905661
ECCENTRICITY   = .0003748
INCLINATION    = 69.9925
RA_OF_ASC_NODE = 204.4985
ARG_OF_PERICENTER = 269.1010
MEAN_ANOMALY   = 319.0072

EPHEMERIS_TYPE = 0
CLASSIFICATION_TYPE = U
NORAD_CAT_ID   = 66846
ELEMENT_SET_NO = 999
REV_AT_EPOCH   = 258
BSTAR          = -.72117E-2
MEAN_MOTION_DOT = -.1701487E-1
MEAN_MOTION_DDOT = 0

CCSDS_OMM_VERS = 2.0
CREATION_DATE  = 
ORIGINATOR     = 

OBJECT_NAME    = STARLINK-36061
OBJECT_ID      = 2025-280AC
CENTER_NAME    = EARTH
REF_FRAME      = TEME
TIME_SYSTEM    = UTC
MEAN_ELEMENT_THEORY = SGP/SGP4

EPOCH          = 2025-12-10T18:00:02.000160
MEAN_MOTION    = 15.87951104
ECCENTRICITY   = .0003761
INCLINATION    = 69.9924
RA_OF_ASC_NODE = 204.4971
ARG_OF_PERICENTER = 269.5352
MEAN_ANOMALY   = 320.0966

EPHEMERIS_TYPE = 0
CLASSIFICATION_TYPE = U
NORAD_CAT_ID   = 66847
ELEMENT_SET_NO = 999
REV_AT_EPOCH   = 253
BSTAR          = -.72049E-2
MEAN_MOTION_DOT = -.1703472E-1
MEAN_MOTION_DDOT = 0

CCSDS_OMM_VERS = 2.0
CREATION_DATE  = 
ORIGINATOR     = 

OBJECT_NAME    = STARLINK-36091
OBJECT_ID      = 2025-281A
CENTER_NAME    = EARTH
REF_FRAME      = TEME
TIME_SYSTEM    = UTC
MEAN_ELEMENT_THEORY = SGP/SGP4

EPOCH          = 2025-12-10T16:00:01.999584
MEAN_MOTION    = 15.95185766
ECCENTRICITY   = .00016928
INCLINATION    = 43.0014
RA_OF_ASC_NODE = 135.3114
ARG_OF_PERICENTER = 280.9350
MEAN_ANOMALY   = 204.3448

EPHEMERIS_TYPE = 0
CLASSIFICATION_TYPE = U
NORAD_CAT_ID   = 66848
ELEMENT_SET_NO = 999
REV_AT_EPOCH   = 246
BSTAR          = -.23663686E-2
MEAN_MOTION_DOT = -.965288E-2
MEAN_MOTION_DDOT = .2924381E-3

CCSDS_OMM_VERS = 2.0
CREATION_DATE  = 
ORIGINATOR     = 

OBJECT_NAME    = STARLINK-36102
OBJECT_ID      = 2025-281B
CENTER_NAME    = EARTH
REF_FRAME      = TEME
TIME_SYSTEM    = UTC
MEAN_ELEMENT_THEORY = SGP/SGP4

EPOCH          = 2025-12-10T16:00:01.999584
MEAN_MOTION    = 15.95247309
ECCENTRICITY   = .0001605
INCLINATION    = 43.0015
RA_OF_ASC_NODE = 135.3060
ARG_OF_PERICENTER = 279.0783
MEAN_ANOMALY   = 208.0732

EPHEMERIS_TYPE = 0
CLASSIFICATION_TYPE = U
NORAD_CAT_ID   = 66849
ELEMENT_SET_NO = 999
REV_AT_EPOCH   = 246
BSTAR          = -.2361761E-2
MEAN_MOTION_DOT = -.966596E-2
MEAN_MOTION_DDOT = .29334398E-3

CCSDS_OMM_VERS = 2.0
CREATION_DATE  = 
ORIGINATOR     = 

OBJECT_NAME    = STARLINK-36105
OBJECT_ID      = 2025-281C
CENTER_NAME    = EARTH
REF_FRAME      = TEME
TIME_SYSTEM    = UTC
MEAN_ELEMENT_THEORY = SGP/SGP4

EPOCH          = 2025-12-10T16:00:01.999584
MEAN_MOTION    = 15.95340432
ECCENTRICITY   = .00015636
INCLINATION    = 43.0013
RA_OF_ASC_NODE = 135.3001
ARG_OF_PERICENTER = 273.8690
MEAN_ANOMALY   = 215.7585

EPHEMERIS_TYPE = 0
CLASSIFICATION_TYPE = U
NORAD_CAT_ID   = 66850
ELEMENT_SET_NO = 999
REV_AT_EPOCH   = 246
BSTAR          = -.23522064E-2
MEAN_MOTION_DOT = -.967539E-2
MEAN_MOTION_DDOT = .29414388E-3

CCSDS_OMM_VERS = 2.0
CREATION_DATE  = 
ORIGINATOR     = 

OBJECT_NAME    = STARLINK-36094
OBJECT_ID      = 2025-281D
CENTER_NAME    = EARTH
REF_FRAME      = TEME
TIME_SYSTEM    = UTC
MEAN_ELEMENT_THEORY = SGP/SGP4

EPOCH          = 2025-12-10T16:00:01.999584
MEAN_MOTION    = 15.95416525
ECCENTRICITY   = .00016672
INCLINATION    = 43.0013
RA_OF_ASC_NODE = 135.2954
ARG_OF_PERICENTER = 281.4235
MEAN_ANOMALY   = 210.0940

EPHEMERIS_TYPE = 0
CLASSIFICATION_TYPE = U
NORAD_CAT_ID   = 66851
ELEMENT_SET_NO = 999
REV_AT_EPOCH   = 246
BSTAR          = -.23762503E-2
MEAN_MOTION_DOT = -.981359E-2
MEAN_MOTION_DDOT = .30208182E-3

CCSDS_OMM_VERS = 2.0
CREATION_DATE  = 
ORIGINATOR     = 

OBJECT_NAME    = STARLINK-35992
OBJECT_ID      = 2025-281E
CENTER_NAME    = EARTH
REF_FRAME      = TEME
TIME_SYSTEM    = UTC
MEAN_ELEMENT_THEORY = SGP/SGP4

EPOCH          = 2025-12-10T16:00:01.999584
MEAN_MOTION    = 15.95490858
ECCENTRICITY   = .00016244
INCLINATION    = 43.0015
RA_OF_ASC_NODE = 135.2908
ARG_OF_PERICENTER = 275.4518
MEAN_ANOMALY   = 217.8803

EPHEMERIS_TYPE = 0
CLASSIFICATION_TYPE = U
NORAD_CAT_ID   = 66852
ELEMENT_SET_NO = 999
REV_AT_EPOCH   = 246
BSTAR          = -.24039217E-2
MEAN_MOTION_DOT = -.996651E-2
MEAN_MOTION_DDOT = .31095622E-3

CCSDS_OMM_VERS = 2.0
CREATION_DATE  = 
ORIGINATOR     = 

OBJECT_NAME    = STARLINK-35986
OBJECT_ID      = 2025-281F
CENTER_NAME    = EARTH
REF_FRAME      = TEME
TIME_SYSTEM    = UTC
MEAN_ELEMENT_THEORY = SGP/SGP4

EPOCH          = 2025-12-10T16:00:01.999584
MEAN_MOTION    = 15.95608593
ECCENTRICITY   = .00016358
INCLINATION    = 43.0015
RA_OF_ASC_NODE = 135.2841
ARG_OF_PERICENTER = 275.5982
MEAN_ANOMALY   = 220.3793

EPHEMERIS_TYPE = 0
CLASSIFICATION_TYPE = U
NORAD_CAT_ID   = 66853
ELEMENT_SET_NO = 999
REV_AT_EPOCH   = 246
BSTAR          = -.24896148E-2
MEAN_MOTION_DOT = -.1038402E-1
MEAN_MOTION_DDOT = .33553081E-3

CCSDS_OMM_VERS = 2.0
CREATION_DATE  = 
ORIGINATOR     = 

OBJECT_NAME    = STARLINK-36087
OBJECT_ID      = 2025-281G
CENTER_NAME    = EARTH
REF_FRAME      = TEME
TIME_SYSTEM    = UTC
MEAN_ELEMENT_THEORY = SGP/SGP4

EPOCH          = 2025-12-10T16:00:01.999584
MEAN_MOTION    = 15.95721326
ECCENTRICITY   = .00016261
INCLINATION    = 43.0014
RA_OF_ASC_NODE = 135.2774
ARG_OF_PERICENTER = 269.4535
MEAN_ANOMALY   = 229.0445

EPHEMERIS_TYPE = 0
CLASSIFICATION_TYPE = U
NORAD_CAT_ID   = 66854
ELEMENT_SET_NO = 999
REV_AT_EPOCH   = 246
BSTAR          = -.25875366E-2
MEAN_MOTION_DOT = -.1085412E-1
MEAN_MOTION_DDOT = .3641912E-3

CCSDS_OMM_VERS = 2.0
CREATION_DATE  = 
ORIGINATOR     = 

OBJECT_NAME    = STARLINK-36090
OBJECT_ID      = 2025-281H
CENTER_NAME    = EARTH
REF_FRAME      = TEME
TIME_SYSTEM    = UTC
MEAN_ELEMENT_THEORY = SGP/SGP4

EPOCH          = 2025-12-10T16:00:01.999584
MEAN_MOTION    = 15.95808262
ECCENTRICITY   = .00015962
INCLINATION    = 43.0015
RA_OF_ASC_NODE = 135.2723
ARG_OF_PERICENTER = 269.5680
MEAN_ANOMALY   = 230.9611

EPHEMERIS_TYPE = 0
CLASSIFICATION_TYPE = U
NORAD_CAT_ID   = 66855
ELEMENT_SET_NO = 999
REV_AT_EPOCH   = 246
BSTAR          = -.26621288E-2
MEAN_MOTION_DOT = -.1121625E-1
MEAN_MOTION_DDOT = .38702579E-3

